{"type": "FeatureCollection", "features": [ {"type": "Feature", "properties": {"norad_id": 67228, "name": "QPS-SAR-15", "group": "last-30-days", "lat": -30.081918428976262, "lon": 55.68669957325252, "alt_km": 571.6609015272234, "timestamp": "2025-12-26T08:37:53.295694+00:00", "meta": {"OBJECT_NAME": "QPS-SAR-15", "OBJECT_ID": "2025-307A", "EPOCH": "2025-12-25T15:14:02.675616", "MEAN_MOTION": 14.97088724, "ECCENTRICITY": 0.0010062, "INCLINATION": 42.0066, "RA_OF_ASC_NODE": 99.7194, "ARG_OF_PERICENTER": 294.4282, "MEAN_ANOMALY": 65.5493, "EPHEMERIS_TYPE": 0, "CLASSIFICATION_TYPE": "U", "NORAD_CAT_ID": 67228, "ELEMENT_SET_NO": 999, "REV_AT_EPOCH": 65, "BSTAR": 0.00052701, "MEAN_MOTION_DOT": 6.008e-05, "MEAN_MOTION_DDOT": 0}, "tle": {"line1": "1 67228U 25307A   25359.63475319  .00006008  00000+0  52701-3 0  9995", "line2": "2 67228  42.0066  99.7194 0010062 294.4282  65.5493 14.97088724   657"}}, "geometry": {"type": "Point", "coordinates": [55.68669957325252, -30.081918428976262]}}, {"type": "Feature", "properties": {"norad_id": 67229, "name": "ELECTRON KICK STAGE R/B", "group": "last-30-days", "lat": -38.77587120968347, "lon": 29.928021339539583, "alt_km": 243.10807471048338, "timestamp": "2025-12-26T08:37:53.295705+00:00", "meta": {"OBJECT_NAME": "ELECTRON KICK STAGE R/B", "OBJECT_ID": "2025-307B", "EPOCH": "2025-12-25T08:17:16.936224", "MEAN_MOTION": 15.56484039, "ECCENTRICITY": 0.0243047, "INCLINATION": 42.0009, "RA_OF_ASC_NODE": 99.251, "ARG_OF_PERICENTER": 265.5143, "MEAN_ANOMALY": 91.7904, "EPHEMERIS_TYPE": 0, "CLASSIFICATION_TYPE": "U", "NORAD_CAT_ID": 67229, "ELEMENT_SET_NO": 999, "REV_AT_EPOCH": 63, "BSTAR": 0.0014659, "MEAN_MOTION_DOT": 0.00455769, "MEAN_MOTION_DDOT": 6.2045e-05}, "tle": {"line1": "1 67229U 25307B   25359.34533491  .00455769  62045-4  14659-2 0  9993", "line2": "2 67229  42.0009  99.2510 0243047 265.5143  91.7904 15.56484039   639"}}, "geometry": {"type": "Point", "coordinates": [29.928021339539583, -38.77587120968347]}}, {"type": "Feature", "properties": {"norad_id": 67230, "name": "ELECTRON R/B", "group": "last-30-days", "lat": -37.49243313841847, "lon": 34.570880375042144, "alt_km": 229.39424999819767, "timestamp": "2025-12-26T08:37:53.295715+00:00", "meta": {"OBJECT_NAME": "ELECTRON R/B", "OBJECT_ID": "2025-307C", "EPOCH": "2025-12-21T08:41:59.140320", "MEAN_MOTION": 15.55087105, "ECCENTRICITY": 0.02614087, "INCLINATION": 41.982, "RA_OF_ASC_NODE": 123.1026, "ARG_OF_PERICENTER": 268.141, "MEAN_ANOMALY": 88.9482, "EPHEMERIS_TYPE": 0, "CLASSIFICATION_TYPE": "U", "NORAD_CAT_ID": 67230, "ELEMENT_SET_NO": 999, "REV_AT_EPOCH": 1, "BSTAR": 0.00020247584, "MEAN_MOTION_DOT": 0.00071881, "MEAN_MOTION_DDOT": 8.106877e-06}, "tle": {"line1": "1 67230U 25307C   25355.36249005  .00071881  81069-5  20248-3 0  9997", "line2": "2 67230  41.9820 123.1026 0261408 268.1410  88.9482 15.55087105    19"}}, "geometry": {"type": "Point", "coordinates": [34.570880375042144, -37.49243313841847]}}, {"type": "Feature", "properties": {"norad_id": 67231, "name": "CZ-12A R/B", "group": "last-30-days", "lat": 20.738064238887176, "lon": -134.2346531650408, "alt_km": 186.49157000104697, "timestamp": "2025-12-26T08:37:53.295727+00:00", "meta": {"OBJECT_NAME": "CZ-12A R/B", "OBJECT_ID": "2025-308A", "EPOCH": "2025-12-26T03:33:32.887584", "MEAN_MOTION": 16.26493686, "ECCENTRICITY": 0.0020393, "INCLINATION": 69.7062, "RA_OF_ASC_NODE": 54.4745, "ARG_OF_PERICENTER": 148.0364, "MEAN_ANOMALY": 212.21, "EPHEMERIS_TYPE": 0, "CLASSIFICATION_TYPE": "U", "NORAD_CAT_ID": 67231, "ELEMENT_SET_NO": 999, "REV_AT_EPOCH": 50, "BSTAR": 0.00050746, "MEAN_MOTION_DOT": 0.01744878, "MEAN_MOTION_DDOT": 4.4026e-06}, "tle": {"line1": "1 67231U 25308A   25360.14829731  .01744878  44026-5  50746-3 0  9993", "line2": "2 67231  69.7062  54.4745 0020393 148.0364 212.2100 16.26493686   507"}}, "geometry": {"type": "Point", "coordinates": [-134.2346531650408, 20.738064238887176]}}]}